ONEWEB-0256             
1 48974U 21060H   23294.42376901  .00000181  00000+0  43903-3 0  9994
2 48974  87.9055  61.7985 0001805  98.7283 261.4053 13.16595952112028
ONEWEB-0257             
1 48975U 21060J   23294.83753727  .00000087  00000+0  19379-3 0  9990
2 48975  87.9059  61.6875 0001807  94.0894 266.0443 13.16597070113320
ONEWEB-0258             
1 48976U 21060K   23294.61166267 -.00000033  00000+0 -11895-3 0  9992
2 48976  87.9058  61.7614 0001555  96.7439 263.3869 13.16594581112017
ONEWEB-0259             
1 48977U 21060L   23294.83331878 -.00002672  00000+0 -70235-2 0  9992
2 48977  87.9060  61.7023 0001491 101.5350 258.5948 13.16608637113362
ONEWEB-0260             
1 48978U 21060M   23294.59899461  .00000165  00000+0  39818-3 0  9999
2 48978  87.9058  61.7795 0002448  91.9528 268.1884 13.16596624112028
ONEWEB-0261             
1 48979U 21060N   23294.86920255  .00000131  00000+0  30919-3 0  9992
2 48979  87.9051  61.7175 0001745  76.6445 283.4880 13.16596338113413
ONEWEB-0262             
1 48980U 21060P   23294.85021257  .00000001  00000+0 -29855-4 0  9992
2 48980  87.9053  61.6851 0001233  83.7422 276.3849 13.16592579113377
ONEWEB-0263             
1 48981U 21060Q   23294.42590585  .00000112  00000+0  26017-3 0  9999
2 48981  87.9052  61.7849 0001568  76.4559 283.6746 13.16595934111986
